SL-14 R/B               
1 20466U 90010B   26181.79132315  .00000371  00000+0  42054-4 0  9996
2 20466  82.5022 161.1685 0018254 288.7447  71.1787 14.83654896945257
SL-14 R/B               
1 20511U 90018B   26181.31047751  .00000419  00000+0  49452-4 0  9994
2 20511  82.5220 117.8423 0017689  82.1172 278.2049 14.82224993939263
HST                     
1 20580U 90037B   26181.76850240  .00006914  00000+0  21731-3 0  9990
2 20580  28.4735 347.7442 0001486 311.6422  48.4047 15.30905377790659
SL-16 R/B               
1 20625U 90046B   26181.09672686 -.00000248  00000+0 -10321-3 0  9991
2 20625  70.9996  61.8367 0012584 140.9909 219.2124 14.15025151864295
COSMOS 2084             
1 20663U 90055A   26181.73840343  .00002109  00000+0  15698-3 0  9999
2 20663  62.7914 309.8362 0006484 301.3129  58.7336 15.06172112953342
SL-6 R/B(2)             
1 20666U 90055D   26181.67902935  .00001391  00000+0  11293-3 0  9990
2 20666  62.7806 229.4640 0042849   6.9812 353.1874 15.04042629955183
SL-8 R/B                
1 20775U 90078B   26181.66911325  .00028259  00000+0  79949-3 0  9992
2 20775  82.9024 149.4577 0346951 352.9185   6.7196 14.92994107826131
SL-8 R/B                
1 21088U 91006B   26181.71244641  .00000081  00000+0  65386-4 0  9992
2 21088  82.9423  85.9723 0023869  78.8817 310.4137 13.77507191779632
OKEAN-3                 
1 21397U 91039A   26181.69875934  .00001841  00000+0  12634-3 0  9995
2 21397  82.5153 227.2795 0012513 308.0128  51.9968 15.05383664882036
COSMOS 2151             
1 21422U 91042A   26181.79748338  .00001544  00000+0  12031-3 0  9997
2 21422  82.4969 334.5450 0013229  42.5340 317.6906 15.00477420880154
SL-14 R/B               
1 21423U 91042B   26181.79243347  .00000337  00000+0  39552-4 0  9995
2 21423  82.4935 114.1377 0015800 225.9061 134.0854 14.81910548869827
ERS-1                   
1 21574U 91050A   26181.09319981  .00000356  00000+0  12841-3 0  9994
2 21574  98.7794 202.1065 0031045 227.2929 132.5643 14.39525449831908
ARIANE 40 R/B           
1 21610U 91050F   26181.57080929  .00000280  00000+0  96180-4 0  9990
2 21610  98.1868 229.4660 0004471  92.7324 267.4379 14.42964621835276
INTERCOSMOS 25          
1 21819U 91086A   26181.56556506  .00000589  00000+0  11637-3 0  9993
2 21819  82.6033 241.7143 1484011 233.5038 112.0221 12.12217100510361
SL-8 R/B                
1 21876U 92008B   26181.51595458  .00000131  00000+0  11891-3 0  9990
2 21876  82.9260 183.8771 0034738 177.0314 294.9176 13.75980378724930
SL-8 R/B                
1 21938U 92020B   26181.72039259  .00000055  00000+0  40916-4 0  9994
2 21938  82.9299  69.8052 0028785 345.0813  33.2565 13.75550005716670
USA 81                  
1 21949U 92023A   26181.61737840  .00000167  00000+0  54329-4 0  9995
2 21949  85.0065  66.2559 0002535  73.0152 287.1318 14.32401582110953
COSMOS 2219             
1 22219U 92076A   26181.34776641  .00000189  00000+0  12354-3 0  9991
2 22219  71.0604 142.5599 0017309  21.7391 338.4463 14.14108103734305
SL-16 R/B               
1 22220U 92076B   26181.51607904 -.00000218  00000+0 -84885-4 0  9991
2 22220  71.0014 310.7028 0015062 281.0823 149.1127 14.16874884737814
COSMOS 2221             
1 22236U 92080A   26181.44460727  .00001544  00000+0  13317-3 0  9997
2 22236  82.5032 171.0623 0014536 166.7623 193.3984 14.96567275797650
SL-16 R/B               
1 22285U 92093B   26181.81099456  .00000282  00000+0  16886-3 0  9995
2 22285  71.0213 126.7910 0003210 162.8140 197.3093 14.15463452729161
COSMOS 2228             
1 22286U 92094A   26181.85153495  .00002006  00000+0  16892-3 0  9998
2 22286  82.5184 128.9545 0016034 282.5136  77.4293 14.97634863792994
SL-16 R/B               
1 22566U 93016B   26181.43908492 -.00000249  00000+0 -10330-3 0  9993
2 22566  71.0088 338.3730 0009344 164.1549 195.9868 14.15314729718126
COSMOS 2242             
1 22626U 93024A   26181.41617467  .00001807  00000+0  15482-3 0  9998
2 22626  82.5185 158.8858 0014447 288.0795  71.8853 14.96943557797256
SL-16 R/B               
1 22803U 93059B   26181.26495513  .00000231  00000+0  13800-3 0  9994
2 22803  70.9897 133.7251 0015842  32.3964 327.8129 14.17248456695482
ARIANE 40 R/B           
1 22830U 93061H   26181.61238258  .00000200  00000+0  88794-4 0  9998
2 22830  98.4814 248.1903 0009708 314.2454  45.7933 14.32913223710273
COSMOS 2278             
1 23087U 94023A   26181.75494438 -.00000216  00000+0 -88191-4 0  9991
2 23087  71.0549 298.5383 0010327 227.0541 132.9716 14.14397186660791
SL-16 R/B               
1 23088U 94023B   26181.46789280 -.00000201  00000+0 -79201-4 0  9998
2 23088  70.9982 194.0407 0001874 173.8546 186.2600 14.15026845662044
SL-16 R/B               
1 23343U 94074B   26181.55670432  .00000420  00000+0  62801-4 0  9995
2 23343  97.6986 207.7204 0005897 201.4157 317.4582 14.79513388703934
SL-16 R/B               
1 23405U 94077B   26181.82948649 -.00000043  00000+0  23774-5 0  9994
2 23405  70.9832 114.4621 0003740 315.4164  44.6657 14.15578114632248
